full_name,spec_B,diameter,epoch,a,e,i,om,w,ma,moid
"   433 Eros (1898 DQ)",S,16.84,2458600.5,1.458112258549551,.2227357205256897,10.82856732664407,304.3062624764607,178.8213598069167,47.2394600142737,.149341
"  1036 Ganymed (1924 TD)",S,37.675,2458600.5,2.664145333304944,.533234731246704,26.68761298568435,215.5575046748637,132.3963555750316,274.1561977877303,.343497
"  1620 Geographos (1951 RA)",S,2.56,2458600.5,1.245302338751136,.3354405135541502,13.33734772081983,337.1953995471447,276.9150362115868,311.5329647046395,.0298285
"  1627 Ivar (1929 SH)",S,9.12,2458600.5,1.863481492929839,.3966132601568471,8.450367689675264,133.1221743090492,167.7698102007814,101.5580083983317,.11161
"  1685 Toro (1948 OA)",S,3.4,2458600.5,1.367431915074258,.4360613823094916,9.38341668856663,274.2458433388088,127.2205979281958,43.69210505570832,.0507259
"  1862 Apollo (1932 HA)",Q,1.5,2458600.5,1.47004510545699,.5598233975579915,6.355123008466338,35.6305446544467,285.9707515414394,227.3798255988188,.0259212
"  1863 Antinous (1948 EA)",Sq,2.1,2458600.5,2.258732646881472,.6065678065878067,18.40010586275719,346.4438822233002,268.0619559218463,313.6604459825436,.182839
"  1864 Daedalus (1971 FA)",Sr,3.7,2458600.5,1.461087899010191,.614376090301885,22.20872495951641,6.633243483514217,325.626041070623,357.9815287824834,.269151
"  1865 Cerberus (1971 UA)",S,1.2,2458600.5,1.080048254674453,.4668656012264114,16.09630941974397,212.9252351107687,325.2556214577126,12.03974211458093,.156505
"  1866 Sisyphus (1972 XA)",S,8.48,2458600.5,1.893971556570787,.5380638777389238,41.20139085128154,63.49506350291923,293.0598919040687,312.9148636816906,.104496
"  1916 Boreas (1953 RA)",S,3.5,2458600.5,2.273106337718964,.449449653550224,12.87719553988852,340.6145572127667,335.8399310452219,64.70467706970035,.252456
"  1917 Cuyo (1968 AA)",Sl,5.7,2458600.5,2.148813259479384,.5056043637794707,23.96210856190418,188.3112290381987,194.5301336175624,129.4029355278666,.071629
"  1943 Anteros (1973 EC)",L,2.3,2458600.5,1.430457204396518,.2560007022479815,8.706410855558776,246.3308387890281,338.392152999114,317.7819362798103,.0622122
"  1980 Tezcatlipoca (1950 LA)",Sl,4.3,2458600.5,1.70952097395044,.3647443715989342,26.86959039869459,246.5742662973466,115.45306662515,233.2322647122028,.245309
"  1981 Midas (1973 EA)",V,3.4,2458600.5,1.776599538133666,.650353417909928,39.82689586872458,356.886302133863,267.7977398881659,146.2687119598268,.00371125
"  2062 Aten (1976 AA)",Sr,1.1,2455926.5,.9667898316324987,.1827171340905242,18.93368681084476,108.6003764318441,148.0354055966093,172.267762763347,.113146
"  2100 Ra-Shalom (1978 RA)",Xc,2.3,2458600.5,.8320301926772186,.4364984555039749,15.7534187444646,170.8136991828988,356.0610619866994,12.26948820595887,.149853
"  2102 Tantalus (1975 YA)",Q,1.649,2458600.5,1.290099740925321,.2991815075859912,64.00689761155139,94.36244650565556,61.53939808194688,172.9411295135752,.0434647
"  2201 Oljato (1947 XC)",Sq,1.80,2458600.5,2.174290202658512,.7129028381618588,2.522431727583554,74.98800058446584,98.26027814502456,80.08208777997029,.00318058
"  3102 Krok (1981 QA)",S,1.6,2458600.5,2.151171110106921,.4493283301818939,8.441434594773515,172.074074892446,154.7154225088176,336.9429307096377,.183489
"  3103 Eger (1982 BB)",Xe,1.5,2458600.5,1.404185282465103,.3542354544211946,20.92911271257864,129.762372408811,254.0686243607444,199.3738318656949,.079032
"  3122 Florence (1981 ET3)",S,4.9,2458600.5,1.768889518826767,.4230601080787966,22.14239422414861,336.0804437562006,27.84121981424509,242.8720760633711,.0441982
"  3199 Nefertiti (1982 RA)",Sq,2.2,2458600.5,1.574459175382506,.2841461154298837,32.96161688953291,340.0066302720126,53.40777463426233,161.2485686203034,.215293
"  3200 Phaethon (1983 TB)",B,6.25,2458600.5,1.271372810515883,.8898976614653178,22.26024404856695,265.2162359606943,322.1855106119202,313.9389767098837,.0195545
"  3288 Seleucus (1982 DV)",K,2.8,2458600.5,2.033192006134566,.4560586841003369,5.930310137932565,218.6516955724429,349.3260862065908,281.105247304228,.102357
"  3552 Don Quixote (1983 SA)",D,19.0,2458600.5,4.258927154158307,.7088439636790387,31.08108157302687,350.0027590955518,316.4480835325651,39.74116015123859,.333524
"  3671 Dionysus (1984 KD)",Cb,1.5,2458600.5,2.19861623099639,.5415435918949166,13.53438918374365,82.08738690737108,204.2520933442942,247.0577375594657,.0206197
"  3691 Bede (1982 FT)",Xc,4.3,2458600.5,1.774446530451572,.2841527294601945,20.35728376145975,348.7552861043116,234.9387484158116,231.2033371319069,.351907
"  3753 Cruithne (1986 TO)",Q,2.071,2458600.5,.9976941535498141,.5148091708232941,19.8056494422318,126.2272109209331,43.84004869746413,130.8599697896228,.0708517
"  3908 Nyx (1980 PA)",V,1.0,2458600.5,1.927084705579217,.4594762469180053,2.185926605156033,261.2510573143405,126.6051178168928,149.182281928598,.0556973
"  4055 Magellan (1985 DO2)",V,2.49,2458600.5,1.820287780089132,.3261788530714085,23.25238269138794,164.8345161164332,154.37921417666,184.6453080695663,.239016
"  4179 Toutatis (1989 AC)",Sk,5.4,2458600.5,2.543228263903637,.6260902638847483,.4477992419778091,125.1852584731468,278.0810743695068,214.2215089174523,.00640764
"  4183 Cuno (1959 LM)",Sq,2.945,2458600.5,1.982718743048,.6342867013391684,6.704164995795511,294.8739993424202,236.3587829278981,190.1366773414012,.0284265
"  4197 Morpheus (1982 TA)",Sq,1.8,2458600.5,2.295830269678062,.7718413103374734,12.57879091895664,7.130842709645103,122.4263276855047,149.8604592022722,.0984312
"  4688 (1980 WF)",V,0.6,2458600.5,2.235405907286833,.5162115935483694,6.378793880909775,241.3095843466438,213.6531185560936,174.5925418082213,.112894
"  4954 Eric (1990 SQ)",S,10.8,2458600.5,2.001160097467715,.449434801362612,17.42800577952955,358.4460075559657,52.6098184769657,11.6336072319435,.194159
"  4957 Brucemurray (1990 XJ)",S,3.499,2458600.5,1.565445453876593,.2189361620061523,35.01195809501346,254.9007914274735,97.46585635997771,224.09785075112,.425231
"  5143 Heracles (1991 VL)",O,4.843,2458600.5,1.833626498546259,.7721004582834833,9.028976449862574,309.4901810765482,227.8023887909469,331.9117556127428,.0584024
"  5587 (1990 SB)",Sq,3.57,2458600.5,2.396500134429368,.5447867344055286,18.09711644120237,189.9564156217754,86.77114975802901,293.0008467298945,.306512
"  5604 (1992 FE)",V,0.55,2458600.5,.9287449375948726,.4060401011056861,4.713370241113736,311.9349100708521,82.61058080437328,227.0445698193842,.0334274
"  5646 (1990 TR)",U,4.3,2458600.5,2.143746530223802,.4356604757820694,7.904975064984591,14.12200814223002,335.7267841030643,46.85564854920813,.21186
"  5751 Zao (1992 AC)",X,2.3,2458600.5,2.103180129288249,.4234192668758789,16.07083384329064,121.6733393470848,25.24463063785294,328.0073737182326,.245362
"  6053 (1993 BW3)",Sq,3.720,2458600.5,2.146630396231844,.5288835407626561,21.57813116262826,318.3120000976737,74.87797507053399,175.5766665041434,.221011
"  6455 (1992 HE)",S,4.626,2458600.5,2.240677050230481,.572554028072926,37.34284405857855,26.9529199981963,262.7398308033482,2.371286591120485,.289287
"  6489 Golevka (1991 JX)",Q,0.53,2452464.5,2.502473955538531,.6052965473603549,2.276480760253867,211.0620214995175,66.65547373733823,274.4136345211533,.0280499
"  7482 (1994 PC1)",S,1.052,2458600.5,1.346240044467568,.3282387260218584,33.4867210988066,117.8854792660949,47.63358425329776,66.07736125194663,.000166392
"  7822 (1991 CS)",S,1.602,2458600.5,1.122893540915186,.1646986211078396,37.11994329760697,156.8574635179829,249.4391246076157,325.4990989220708,.022164
"  7889 (1994 LX)",V,1.680,2458600.5,1.261413272900025,.3462932993717291,36.90898365332638,111.2786554469458,349.1392268454754,25.92719149538891,.154267
"  8201 (1994 AH2)",O,1.859,2458600.5,2.537240419610046,.7069778790502353,9.553656002703127,164.1054989016626,25.13314305637785,71.75678883605686,.101523
"  8566 (1996 EN)",U,1.568,2458600.5,1.506377944198319,.4303937362869547,37.97291496130058,164.1359845852762,125.1203366459011,103.9097268507831,.0220273
" 10115 (1992 SK)",S:,0.938,2458600.5,1.248441187536947,.3248242727670989,15.32072623773594,8.918220610087157,233.6493130304184,111.4191743219336,.0456965
" 10165 (1995 BL2)",L,0.829,2458600.5,1.23469487072075,.5037713639419696,23.89566894391062,312.4408481985741,348.4309414495629,94.90341982533955,.37596
" 11066 Sigurd (1992 CC1)",K,2.778,2458600.5,1.391579376585365,.3752741308818071,36.87786936853653,349.235742769075,22.00373372647735,314.3293010873032,.118482
" 11398 (1998 YP11)",Sr,1.316,2458600.5,1.720810908009164,.3889533315294349,15.02466036177406,144.7914688936139,74.70344862511375,313.7788392715544,.203252
" 11500 Tomaiyowit (1989 UR)",S,0.738,2458600.5,1.079645465476707,.3557227728160029,10.3105120908242,234.4360318699576,289.4439101526445,6.873617807799914,.0342079
" 12538 (1998 OH)",S:,1.663,2458600.5,1.541615161239799,.405942445880855,24.52816135405338,220.7465853148037,321.7288600089306,7.271595380911098,.0286685
" 12923 Zephyr (1999 GK4)",S:,2.060,2458600.5,1.961954177489835,.4918352414290229,5.303308567759982,168.2051673343429,147.0430497270982,54.47276138433357,.021265
" 13651 (1997 BR)",S,0.562,2458600.5,1.335489026544135,.3057281310416528,17.24797684997032,116.6660065078106,133.8046252768486,65.49330674055174,.0147416
" 14402 (1991 DB)",C,0.6,2458600.5,1.714878401612079,.401902145980843,11.41672287084926,158.2343138645865,51.3762017542545,167.8902331290749,.102802
" 16064 Davidharvey (1999 RH27)",C,4.106,2458600.5,2.849857901602364,.5892304059826627,4.539658767839901,335.5707687946791,104.803639359424,353.8311004298751,.2037
" 16834 (1997 WU22)",S,1.87,2458600.5,1.467985350600078,.4421685146037818,15.99048881388658,260.7974944046721,334.3257973930939,219.2078938605249,.145955
" 17274 (2000 LC16)",Xk,3.183,2458600.5,2.734847166243054,.5532238074065694,5.568494463272575,305.7577094533964,21.30096692410652,53.36570991287061,.212293
" 19356 (1997 GH3)",S,0.91,2458600.5,2.501810616375685,.5627977424253554,3.004427928455816,186.7028486980596,333.87753689078,217.5175599131745,.105203
